CCSDS_OMM_VERS = 2.0
CREATION_DATE  = 
ORIGINATOR     = 

OBJECT_NAME    = COSMOS 2550
OBJECT_ID      = 2021-056A
CENTER_NAME    = EARTH
REF_FRAME      = TEME
TIME_SYSTEM    = UTC
MEAN_ELEMENT_THEORY = SGP/SGP4

EPOCH          = 2025-11-03T11:18:22.615776
MEAN_MOTION    = 15.33837542
ECCENTRICITY   = .00083282
INCLINATION    = 67.1434
RA_OF_ASC_NODE = 62.7678
ARG_OF_PERICENTER = 269.9513
MEAN_ANOMALY   = 90.0687

EPHEMERIS_TYPE = 0
CLASSIFICATION_TYPE = U
NORAD_CAT_ID   = 48865
ELEMENT_SET_NO = 999
REV_AT_EPOCH   = 24410
BSTAR          = .18707369E-3
MEAN_MOTION_DOT = .5969E-4
MEAN_MOTION_DDOT = 0

CCSDS_OMM_VERS = 2.0
CREATION_DATE  = 
ORIGINATOR     = 

OBJECT_NAME    = CZ-2C R/B
OBJECT_ID      = 2022-058K
CENTER_NAME    = EARTH
REF_FRAME      = TEME
TIME_SYSTEM    = UTC
MEAN_ELEMENT_THEORY = SGP/SGP4

EPOCH          = 2025-11-03T12:54:55.459296
MEAN_MOTION    = 15.45753342
ECCENTRICITY   = .00500833
INCLINATION    = 50.1917
RA_OF_ASC_NODE = 243.0601
ARG_OF_PERICENTER = 35.1315
MEAN_ANOMALY   = 325.2938

EPHEMERIS_TYPE = 0
CLASSIFICATION_TYPE = U
NORAD_CAT_ID   = 52794
ELEMENT_SET_NO = 999
REV_AT_EPOCH   = 19056
BSTAR          = .59831735E-3
MEAN_MOTION_DOT = .30596E-3
MEAN_MOTION_DDOT = 0

CCSDS_OMM_VERS = 2.0
CREATION_DATE  = 
ORIGINATOR     = 

OBJECT_NAME    = GSLV R/B
OBJECT_ID      = 2022-138AN
CENTER_NAME    = EARTH
REF_FRAME      = TEME
TIME_SYSTEM    = UTC
MEAN_ELEMENT_THEORY = SGP/SGP4

EPOCH          = 2025-11-04T11:02:51.755136
MEAN_MOTION    = 14.95808314
ECCENTRICITY   = .0019128
INCLINATION    = 87.3859
RA_OF_ASC_NODE = 208.2830
ARG_OF_PERICENTER = 244.3709
MEAN_ANOMALY   = 115.5546

EPHEMERIS_TYPE = 0
CLASSIFICATION_TYPE = U
NORAD_CAT_ID   = 54149
ELEMENT_SET_NO = 999
REV_AT_EPOCH   = 16520
BSTAR          = .3314E-3
MEAN_MOTION_DOT = .3737E-4
MEAN_MOTION_DDOT = 0

CCSDS_OMM_VERS = 2.0
CREATION_DATE  = 
ORIGINATOR     = 

OBJECT_NAME    = XRISM
OBJECT_ID      = 2023-137A
CENTER_NAME    = EARTH
REF_FRAME      = TEME
TIME_SYSTEM    = UTC
MEAN_ELEMENT_THEORY = SGP/SGP4

EPOCH          = 2025-11-04T11:54:26.229024
MEAN_MOTION    = 15.09735163
ECCENTRICITY   = .0008239
INCLINATION    = 31.0033
RA_OF_ASC_NODE = 12.3541
ARG_OF_PERICENTER = 218.6121
MEAN_ANOMALY   = 141.3929

EPHEMERIS_TYPE = 0
CLASSIFICATION_TYPE = U
NORAD_CAT_ID   = 57800
ELEMENT_SET_NO = 999
REV_AT_EPOCH   = 11884
BSTAR          = .41101E-3
MEAN_MOTION_DOT = .6894E-4
MEAN_MOTION_DDOT = 0

CCSDS_OMM_VERS = 2.0
CREATION_DATE  = 
ORIGINATOR     = 

OBJECT_NAME    = ACS3
OBJECT_ID      = 2024-077B
CENTER_NAME    = EARTH
REF_FRAME      = TEME
TIME_SYSTEM    = UTC
MEAN_ELEMENT_THEORY = SGP/SGP4

EPOCH          = 2025-11-04T10:39:30.125088
MEAN_MOTION    = 13.83064348
ECCENTRICITY   = .0040287
INCLINATION    = 97.3299
RA_OF_ASC_NODE = 272.5327
ARG_OF_PERICENTER = 30.4116
MEAN_ANOMALY   = 329.9369

EPHEMERIS_TYPE = 0
CLASSIFICATION_TYPE = U
NORAD_CAT_ID   = 59588
ELEMENT_SET_NO = 999
REV_AT_EPOCH   = 7684
BSTAR          = .10777E-1
MEAN_MOTION_DOT = .11848E-3
MEAN_MOTION_DDOT = 0

