COSMOS 2550             
1 48865U 21056A   25307.47109509  .00005969  00000+0  18707-3 0  9991
2 48865  67.1434  62.7678 0008328 269.9513  90.0687 15.33837542244102
CZ-2C R/B               
1 52794U 22058K   25307.53814189  .00030596  00000+0  59832-3 0  9992
2 52794  50.1917 243.0601 0050083  35.1315 325.2938 15.45753342190564
GSLV R/B                
1 54149U 22138AN  25308.46032124  .00003737  00000+0  33140-3 0  9992
2 54149  87.3859 208.2830 0019128 244.3709 115.5546 14.95808314165202
XRISM                   
1 57800U 23137A   25308.49613691  .00006894  00000+0  41101-3 0  9999
2 57800  31.0033  12.3541 0008239 218.6121 141.3929 15.09735163118842
ACS3                    
1 59588U 24077B   25308.44409867  .00011848  00000+0  10777-1 0  9999
2 59588  97.3299 272.5327 0040287  30.4116 329.9369 13.83064348 76846
